[Satellite]
VERSION=1.1
NAME=HODOYOSHI-4
NICKNAME=HODOYOSHI-4
TLE1=1 40011U 14033B   15055.45995365  .00001209  00000-0  16582-3 0  9996
TLE2=2 40011  97.9639 313.1618 0028330 127.3771 232.9992 14.79991794 36913
